[{"OBJECT_NAME":"SHIYAN-20B (SY-20B)","OBJECT_ID":"2022-169B","EPOCH":"2026-03-09T23:45:17.388576","MEAN_MOTION":14.29504375,"ECCENTRICITY":0.00224209,"INCLINATION":59.9961,"RA_OF_ASC_NODE":208.3414,"ARG_OF_PERICENTER":132.0718,"MEAN_ANOMALY":228.2229,"EPHEMERIS_TYPE":0,"CLASSIFICATION_TYPE":"U","NORAD_CAT_ID":54700,"ELEMENT_SET_NO":999,"REV_AT_EPOCH":16917,"BSTAR":0.00010959596,"MEAN_MOTION_DOT":1.45e-6,"MEAN_MOTION_DDOT":0},{"OBJECT_NAME":"FENGYUN 1C DEB","OBJECT_ID":"1999-025BJG","EPOCH":"2026-03-07T06:39:47.350368","MEAN_MOTION":14.2296159,"ECCENTRICITY":0.0125572,"INCLINATION":99.5131,"RA_OF_ASC_NODE":80.2139,"ARG_OF_PERICENTER":77.227,"MEAN_ANOMALY":284.2905,"EPHEMERIS_TYPE":0,"CLASSIFICATION_TYPE":"U","NORAD_CAT_ID":31178,"ELEMENT_SET_NO":999,"REV_AT_EPOCH":97017,"BSTAR":0.0022315,"MEAN_MOTION_DOT":5.4e-5,"MEAN_MOTION_DDOT":0}]
